OBJECT_NAME,OBJECT_ID,EPOCH,MEAN_MOTION,ECCENTRICITY,INCLINATION,RA_OF_ASC_NODE,ARG_OF_PERICENTER,MEAN_ANOMALY,EPHEMERIS_TYPE,CLASSIFICATION_TYPE,NORAD_CAT_ID,ELEMENT_SET_NO,REV_AT_EPOCH,BSTAR,MEAN_MOTION_DOT,MEAN_MOTION_DDOT
SITRO-AIS 5 (KATYS),2023-091L,2026-07-11T20:40:24.943584,15.30017148,.0011025,97.5055,257.0026,24.1365,336.0390,0,U,57176,999,16811,.26435E-3,.7616E-4,0
SITRO-AIS 6 (CHIRKIN),2023-091AC,2026-07-11T19:58:44.545728,15.26398365,.0011523,97.5061,255.9600,28.0739,332.1118,0,U,57192,999,16804,.232E-3,.5973E-4,0
SITRO-AIS 8 (ANOKHIN),2023-091AD,2026-07-11T20:01:39.118656,15.32799132,.0009874,97.5050,258.6664,20.1287,340.0342,0,U,57193,999,16822,.25763E-3,.8092E-4,0
SITRO-AIS 7 (FARTUSHNIY),2023-091AE,2026-07-11T20:10:39.732960,15.26074005,.0011482,97.5057,255.7803,29.2166,330.9712,0,U,57194,999,16803,.23091E-3,.5886E-4,0
SITRO-AIS 10 (BURDAEV),2023-091AK,2026-07-11T19:48:26.684640,15.39542455,.0005154,97.5076,263.9706,355.5597,4.5602,0,U,57199,999,16855,.31062E-3,.12132E-3,0
SITRO-AIS 9 (SHCHUKIN),2023-091AM,2026-07-11T20:38:00.032640,15.39030022,.0005427,97.5074,263.7161,355.6147,4.5050,0,U,57201,999,16854,.30225E-3,.11606E-3,0
SITRO-AIS 12 (SMIRENNIY),2023-091AQ,2026-07-11T20:17:43.941408,15.39325978,.0004962,97.5088,264.1844,348.6097,11.5035,0,U,57204,999,16856,.3069E-3,.119E-3,0
SITRO-AIS 11 (SHEFFER),2023-091AU,2026-07-11T20:27:03.827232,15.39767758,.0004839,97.5086,264.4534,347.8412,12.2716,0,U,57208,999,16858,.30188E-3,.11875E-3,0
SITRO-AIS 25,2024-039R,2026-07-11T19:55:14.369088,14.93630200,.0142541,95.3895,252.0267,241.4231,117.2590,0,U,59066,999,12840,.12675E-3,.1598E-4,0
SITRO-AIS 26,2024-039S,2026-07-11T20:02:06.122976,14.93422266,.0142882,95.3896,251.9225,242.0227,116.6479,0,U,59067,999,12839,.13015E-3,.1634E-4,0
SITRO-AIS 27,2024-039T,2026-07-11T20:45:43.015680,14.93848020,.0141953,95.3900,252.2266,240.4626,118.2386,0,U,59068,999,12842,.12807E-3,.1622E-4,0
SITRO-AIS 28,2024-039U,2026-07-11T20:12:26.625312,14.93880369,.0141859,95.3898,252.2593,240.3707,118.3327,0,U,59071,999,12842,.14794E-3,.1881E-4,0
GRBBETA,2024-128C,2026-07-11T07:27:10.573056,15.06792341,.00375247,61.9892,131.6189,139.8192,220.5686,0,U,60237,999,10990,.16150702E-3,.2233E-4,0
OOV-CUBE (TUBSAT-30),2024-128F,2026-07-11T09:47:33.954432,15.02864718,.00415826,61.9942,141.1095,139.1306,221.2916,0,U,60240,999,10975,.10330684E-3,.1201E-4,0
ROBUSTA-3A (MEDITERRANEE),2024-128J,2026-07-11T20:55:20.572896,15.11956772,.003837,61.9860,120.9328,133.3412,227.0892,0,U,60243,999,11015,.28094E-3,.47E-4,0
LASARSAT,2024-247Q,2026-07-11T04:32:50.416224,15.47861056,.00068751,44.9745,127.1862,135.1375,225.0072,0,U,62391,999,8703,.43320782E-3,.22765E-3,0
CROCUBE,2024-247T,2026-07-10T04:33:02.620224,15.49924104,.00069141,44.9700,129.7539,137.1599,222.9832,0,U,62394,999,8691,.58811806E-3,.33442E-3,0
FORESAIL-1 PRIME,2025-276DS,2026-07-11T18:26:45.362112,15.18920146,.0003143,97.4195,265.5912,52.4628,307.6892,0,U,66778,999,3413,.13554E-3,.2762E-4,0
KNACKSAT-2,1998-067XZ,2026-07-11T08:33:41.694048,15.62129323,.00081939,51.6254,172.7064,314.9456,45.0873,0,U,67683,999,2405,.40006392E-3,.35473E-3,0
